<?xml version='1.0' encoding='utf-8'?>
<gpx version="1.1" creator="NMEA Decoder"><trk><trkseg><trkpt lat="48.006" lon="0.19899999999999998"><ele>60.0</ele></trkpt><trkpt lat="48.006" lon="0.19899999999999998" /><trkpt lat="48.00683333333333" lon="0.198"><ele>61.0</ele></trkpt><trkpt lat="48.00683333333333" lon="0.198" /><trkpt lat="48.00783333333333" lon="0.197"><ele>62.0</ele></trkpt><trkpt lat="48.00783333333333" lon="0.197" /><trkpt lat="48.00866666666667" lon="0.196"><ele>63.0</ele></trkpt><trkpt lat="48.00866666666667" lon="0.196" /><trkpt lat="48.00933333333333" lon="0.19499999999999998"><ele>64.0</ele></trkpt><trkpt lat="48.00933333333333" lon="0.19499999999999998" /><trkpt lat="48.009" lon="0.19366666666666665"><ele>63.0</ele></trkpt><trkpt lat="48.009" lon="0.19366666666666665" /><trkpt lat="48.00816666666667" lon="0.193"><ele>62.0</ele></trkpt><trkpt lat="48.00816666666667" lon="0.193" /><trkpt lat="48.00716666666667" lon="0.19333333333333333"><ele>61.0</ele></trkpt><trkpt lat="48.00716666666667" lon="0.19333333333333333" /><trkpt lat="48.0065" lon="0.19433333333333333"><ele>60.0</ele></trkpt><trkpt lat="48.0065" lon="0.19433333333333333" /><trkpt lat="48.006" lon="0.19566666666666668"><ele>59.0</ele></trkpt><trkpt lat="48.006" lon="0.19566666666666668" /></trkseg></trk></gpx>