$GPGGA,120000.00,4800.360,N,00011.940,E,1,08,1.0,60.0,M,0.0,M,,*79
$GPRMC,120000.00,A,4800.360,N,00011.940,E,3.0,45.0,010426,,,A*7C
$GPGGA,120030.00,4800.410,N,00011.880,E,1,08,1.0,61.0,M,0.0,M,,*73
$GPRMC,120030.00,A,4800.410,N,00011.880,E,4.0,50.0,010426,,,A*70
$GPGGA,120100.00,4800.470,N,00011.820,E,1,08,1.0,62.0,M,0.0,M,,*7D
$GPRMC,120100.00,A,4800.470,N,00011.820,E,4.2,55.0,010426,,,A*7E
$GPGGA,120130.00,4800.520,N,00011.760,E,1,08,1.0,63.0,M,0.0,M,,*7C
$GPRMC,120130.00,A,4800.520,N,00011.760,E,4.1,60.0,010426,,,A*7A
$GPGGA,120200.00,4800.560,N,00011.700,E,1,08,1.0,64.0,M,0.0,M,,*7D
$GPRMC,120200.00,A,4800.560,N,00011.700,E,4.0,75.0,010426,,,A*79
$GPGGA,120230.00,4800.540,N,00011.620,E,1,08,1.0,63.0,M,0.0,M,,*76
$GPRMC,120230.00,A,4800.540,N,00011.620,E,3.8,110.0,010426,,,A*79
$GPGGA,120300.00,4800.490,N,00011.580,E,1,08,1.0,62.0,M,0.0,M,,*72
$GPRMC,120300.00,A,4800.490,N,00011.580,E,3.5,135.0,010426,,,A*76
$GPGGA,120330.00,4800.430,N,00011.600,E,1,08,1.0,61.0,M,0.0,M,,*76
$GPRMC,120330.00,A,4800.430,N,00011.600,E,3.0,165.0,010426,,,A*78
$GPGGA,120400.00,4800.390,N,00011.660,E,1,08,1.0,60.0,M,0.0,M,,*70
$GPRMC,120400.00,A,4800.390,N,00011.660,E,2.8,200.0,010426,,,A*7F
$GPGGA,120430.00,4800.360,N,00011.740,E,1,08,1.0,59.0,M,0.0,M,,*74
$GPRMC,120430.00,A,4800.360,N,00011.740,E,2.5,230.0,010426,,,A*74