<?xml version='1.0' encoding='utf-8'?>
<kml xmlns="http://www.opengis.net/kml/2.2"><Document><Placemark><LineString><coordinates>0.19899999999999998,48.006,60.0 0.19899999999999998,48.006,0 0.198,48.00683333333333,61.0 0.198,48.00683333333333,0 0.197,48.00783333333333,62.0 0.197,48.00783333333333,0 0.196,48.00866666666667,63.0 0.196,48.00866666666667,0 0.19499999999999998,48.00933333333333,64.0 0.19499999999999998,48.00933333333333,0 0.19366666666666665,48.009,63.0 0.19366666666666665,48.009,0 0.193,48.00816666666667,62.0 0.193,48.00816666666667,0 0.19333333333333333,48.00716666666667,61.0 0.19333333333333333,48.00716666666667,0 0.19433333333333333,48.0065,60.0 0.19433333333333333,48.0065,0 0.19566666666666668,48.006,59.0 0.19566666666666668,48.006,0</coordinates></LineString></Placemark></Document></kml>